FLOCK 4BE-9             
1 60514U 24149AY  26061.79272578  .00018891  00000+0  51862-3 0  9999
2 60514  97.3849 145.2868 0001675 337.3408  22.7762 15.37292516 85953
FLOCK 4BE-8             
1 60515U 24149AZ  26061.74861678  .00275136  00000+0  18446-2 0  9997
2 60515  97.3691 148.1103 0004684 237.7361 122.3450 15.74440465 86161
FLOCK 4BE-6             
1 60516U 24149BA  26061.68183418  .00018262  00000+0  51701-3 0  9997
2 60516  97.3851 144.7105 0002403 326.3468  33.7623 15.36340309 85906
FLOCK 4BE-14            
1 60517U 24149BB  26061.75031254  .00019268  00000+0  52742-3 0  9999
2 60517  97.3760 144.8488 0003261 322.5031  37.5986 15.37375766 85953
FLOCK 4BE-1             
1 60518U 24149BC  26061.80265860  .00021715  00000+0  57036-3 0  9999
2 60518  97.3837 145.8254 0003149 318.2678  41.8326 15.38629935 85996
FLOCK 4BE-28            
1 60519U 24149BD  26061.77299867  .00025648  00000+0  63061-3 0  9994
2 60519  97.3802 146.2118 0003532 316.5043  43.5924 15.40616794 86037
IPERDRONE.0             
1 60520U 24149BE  26061.76193229  .00053473  00000+0  82966-3 0  9992
2 60520  97.3829 150.8060 0002661 263.6763  96.4187 15.53822657 86329
TRANSPORTER-11 OBJECT BF
1 60521U 24149BF  26061.77781965  .00076970  00000+0  99157-3 0  9991
2 60521  97.3843 151.9807 0002993 262.5430  97.5486 15.58774643 86391
CONNECTA IOT-2          
1 60522U 24149BG  26061.77688590  .00006545  00000+0  28181-3 0  9992
2 60522  97.3908 141.5889 0005949 353.3957   6.7201 15.22922235 85698
PTD-R (TYVAK-0127)      
1 60523U 24149BH  26061.79621324  .00137515  00000+0  12500-2 0  9996
2 60523  97.3787 154.6850 0003822 261.2585  98.8243 15.67527392 86591
CONNECTA IOT-4          
1 60524U 24149BJ  26061.78727465  .00020195  00000+0  53940-3 0  9998
2 60524  97.3853 145.2018 0004834 317.6393  42.4478 15.38121026 85951
ORESAT0.5               
1 60525U 24149BK  26061.69972407  .00023674  00000+0  57918-3 0  9991
2 60525  97.3776 146.3918 0004594 306.3804  53.7018 15.40779517 86056
DEIMOS                  
1 60526U 24149BL  26061.80948743  .00022459  00000+0  56147-3 0  9994
2 60526  97.3835 146.6818 0004602 314.7331  45.3540 15.40132619 86056
CUAVA-2                 
1 60527U 24149BM  26061.74851602  .00015467  00000+0  48130-3 0  9999
2 60527  97.3789 143.2756 0005936 320.8159  39.2653 15.33375582 85849
ERNST                   
1 60528U 24149BN  26061.77615453  .00017743  00000+0  50608-3 0  9997
2 60528  97.3864 144.9211 0005174 326.6621  33.4296 15.36102143 85922
TORO                    
1 60530U 24149BQ  26061.77191623  .00002896  00000+0  26346-3 0  9993
2 60530  97.6876 138.4266 0001545  84.3163 275.8234 14.95975312 84042
HYPSO-2                 
1 60531U 24149BR  26061.76279359  .00004648  00000+0  39655-3 0  9990
2 60531  97.6903 139.5881 0001695  84.5162 275.6254 14.98192206 84110
