[{"OBJECT_NAME":"FLOCK 4BE-9","OBJECT_ID":"2024-149AY","EPOCH":"2026-03-02T19:01:31.507392","MEAN_MOTION":15.37292516,"ECCENTRICITY":0.0001675,"INCLINATION":97.3849,"RA_OF_ASC_NODE":145.2868,"ARG_OF_PERICENTER":337.3408,"MEAN_ANOMALY":22.7762,"EPHEMERIS_TYPE":0,"CLASSIFICATION_TYPE":"U","NORAD_CAT_ID":60514,"ELEMENT_SET_NO":999,"REV_AT_EPOCH":8595,"BSTAR":0.00051862,"MEAN_MOTION_DOT":0.00018891,"MEAN_MOTION_DDOT":0},{"OBJECT_NAME":"FLOCK 4BE-8","OBJECT_ID":"2024-149AZ","EPOCH":"2026-03-02T17:58:00.489792","MEAN_MOTION":15.74440465,"ECCENTRICITY":0.0004684,"INCLINATION":97.3691,"RA_OF_ASC_NODE":148.1103,"ARG_OF_PERICENTER":237.7361,"MEAN_ANOMALY":122.345,"EPHEMERIS_TYPE":0,"CLASSIFICATION_TYPE":"U","NORAD_CAT_ID":60515,"ELEMENT_SET_NO":999,"REV_AT_EPOCH":8616,"BSTAR":0.0018446,"MEAN_MOTION_DOT":0.00275136,"MEAN_MOTION_DDOT":0},{"OBJECT_NAME":"FLOCK 4BE-6","OBJECT_ID":"2024-149BA","EPOCH":"2026-03-02T16:21:50.473152","MEAN_MOTION":15.36340309,"ECCENTRICITY":0.0002403,"INCLINATION":97.3851,"RA_OF_ASC_NODE":144.7105,"ARG_OF_PERICENTER":326.3468,"MEAN_ANOMALY":33.7623,"EPHEMERIS_TYPE":0,"CLASSIFICATION_TYPE":"U","NORAD_CAT_ID":60516,"ELEMENT_SET_NO":999,"REV_AT_EPOCH":8590,"BSTAR":0.00051701,"MEAN_MOTION_DOT":0.00018262,"MEAN_MOTION_DDOT":0},{"OBJECT_NAME":"FLOCK 4BE-14","OBJECT_ID":"2024-149BB","EPOCH":"2026-03-02T18:00:27.003456","MEAN_MOTION":15.37375766,"ECCENTRICITY":0.0003261,"INCLINATION":97.376,"RA_OF_ASC_NODE":144.8488,"ARG_OF_PERICENTER":322.5031,"MEAN_ANOMALY":37.5986,"EPHEMERIS_TYPE":0,"CLASSIFICATION_TYPE":"U","NORAD_CAT_ID":60517,"ELEMENT_SET_NO":999,"REV_AT_EPOCH":8595,"BSTAR":0.00052742,"MEAN_MOTION_DOT":0.00019268,"MEAN_MOTION_DDOT":0},{"OBJECT_NAME":"FLOCK 4BE-1","OBJECT_ID":"2024-149BC","EPOCH":"2026-03-02T19:15:49.703040","MEAN_MOTION":15.38629935,"ECCENTRICITY":0.0003149,"INCLINATION":97.3837,"RA_OF_ASC_NODE":145.8254,"ARG_OF_PERICENTER":318.2678,"MEAN_ANOMALY":41.8326,"EPHEMERIS_TYPE":0,"CLASSIFICATION_TYPE":"U","NORAD_CAT_ID":60518,"ELEMENT_SET_NO":999,"REV_AT_EPOCH":8599,"BSTAR":0.00057036,"MEAN_MOTION_DOT":0.00021715,"MEAN_MOTION_DDOT":0},{"OBJECT_NAME":"FLOCK 4BE-28","OBJECT_ID":"2024-149BD","EPOCH":"2026-03-02T18:33:07.085088","MEAN_MOTION":15.40616794,"ECCENTRICITY":0.0003532,"INCLINATION":97.3802,"RA_OF_ASC_NODE":146.2118,"ARG_OF_PERICENTER":316.5043,"MEAN_ANOMALY":43.5924,"EPHEMERIS_TYPE":0,"CLASSIFICATION_TYPE":"U","NORAD_CAT_ID":60519,"ELEMENT_SET_NO":999,"REV_AT_EPOCH":8603,"BSTAR":0.00063061,"MEAN_MOTION_DOT":0.00025648,"MEAN_MOTION_DDOT":0},{"OBJECT_NAME":"IPERDRONE.0","OBJECT_ID":"2024-149BE","EPOCH":"2026-03-02T18:17:10.949856","MEAN_MOTION":15.53822657,"ECCENTRICITY":0.0002661,"INCLINATION":97.3829,"RA_OF_ASC_NODE":150.806,"ARG_OF_PERICENTER":263.6763,"MEAN_ANOMALY":96.4187,"EPHEMERIS_TYPE":0,"CLASSIFICATION_TYPE":"U","NORAD_CAT_ID":60520,"ELEMENT_SET_NO":999,"REV_AT_EPOCH":8632,"BSTAR":0.00082966,"MEAN_MOTION_DOT":0.00053473,"MEAN_MOTION_DDOT":0},{"OBJECT_NAME":"TRANSPORTER-11 OBJECT BF","OBJECT_ID":"2024-149BF","EPOCH":"2026-03-02T18:40:03.617760","MEAN_MOTION":15.58774643,"ECCENTRICITY":0.0002993,"INCLINATION":97.3843,"RA_OF_ASC_NODE":151.9807,"ARG_OF_PERICENTER":262.543,"MEAN_ANOMALY":97.5486,"EPHEMERIS_TYPE":0,"CLASSIFICATION_TYPE":"U","NORAD_CAT_ID":60521,"ELEMENT_SET_NO":999,"REV_AT_EPOCH":8639,"BSTAR":0.00099157,"MEAN_MOTION_DOT":0.0007697,"MEAN_MOTION_DDOT":0},{"OBJECT_NAME":"CONNECTA IOT-2","OBJECT_ID":"2024-149BG","EPOCH":"2026-03-02T18:38:42.941760","MEAN_MOTION":15.22922235,"ECCENTRICITY":0.0005949,"INCLINATION":97.3908,"RA_OF_ASC_NODE":141.5889,"ARG_OF_PERICENTER":353.3957,"MEAN_ANOMALY":6.7201,"EPHEMERIS_TYPE":0,"CLASSIFICATION_TYPE":"U","NORAD_CAT_ID":60522,"ELEMENT_SET_NO":999,"REV_AT_EPOCH":8569,"BSTAR":0.00028181,"MEAN_MOTION_DOT":6.545e-5,"MEAN_MOTION_DDOT":0},{"OBJECT_NAME":"PTD-R (TYVAK-0127)","OBJECT_ID":"2024-149BH","EPOCH":"2026-03-02T19:06:32.823936","MEAN_MOTION":15.67527392,"ECCENTRICITY":0.0003822,"INCLINATION":97.3787,"RA_OF_ASC_NODE":154.685,"ARG_OF_PERICENTER":261.2585,"MEAN_ANOMALY":98.8243,"EPHEMERIS_TYPE":0,"CLASSIFICATION_TYPE":"U","NORAD_CAT_ID":60523,"ELEMENT_SET_NO":999,"REV_AT_EPOCH":8659,"BSTAR":0.00125,"MEAN_MOTION_DOT":0.00137515,"MEAN_MOTION_DDOT":0},{"OBJECT_NAME":"CONNECTA IOT-4","OBJECT_ID":"2024-149BJ","EPOCH":"2026-03-02T18:53:40.529760","MEAN_MOTION":15.38121026,"ECCENTRICITY":0.0004834,"INCLINATION":97.3853,"RA_OF_ASC_NODE":145.2018,"ARG_OF_PERICENTER":317.6393,"MEAN_ANOMALY":42.4478,"EPHEMERIS_TYPE":0,"CLASSIFICATION_TYPE":"U","NORAD_CAT_ID":60524,"ELEMENT_SET_NO":999,"REV_AT_EPOCH":8595,"BSTAR":0.0005394,"MEAN_MOTION_DOT":0.00020195,"MEAN_MOTION_DDOT":0},{"OBJECT_NAME":"ORESAT0.5","OBJECT_ID":"2024-149BK","EPOCH":"2026-03-02T16:47:36.159648","MEAN_MOTION":15.40779517,"ECCENTRICITY":0.0004594,"INCLINATION":97.3776,"RA_OF_ASC_NODE":146.3918,"ARG_OF_PERICENTER":306.3804,"MEAN_ANOMALY":53.7018,"EPHEMERIS_TYPE":0,"CLASSIFICATION_TYPE":"U","NORAD_CAT_ID":60525,"ELEMENT_SET_NO":999,"REV_AT_EPOCH":8605,"BSTAR":0.00057918,"MEAN_MOTION_DOT":0.00023674,"MEAN_MOTION_DDOT":0},{"OBJECT_NAME":"DEIMOS","OBJECT_ID":"2024-149BL","EPOCH":"2026-03-02T19:25:39.713952","MEAN_MOTION":15.40132619,"ECCENTRICITY":0.0004602,"INCLINATION":97.3835,"RA_OF_ASC_NODE":146.6818,"ARG_OF_PERICENTER":314.7331,"MEAN_ANOMALY":45.354,"EPHEMERIS_TYPE":0,"CLASSIFICATION_TYPE":"U","NORAD_CAT_ID":60526,"ELEMENT_SET_NO":999,"REV_AT_EPOCH":8605,"BSTAR":0.00056147,"MEAN_MOTION_DOT":0.00022459,"MEAN_MOTION_DDOT":0},{"OBJECT_NAME":"CUAVA-2","OBJECT_ID":"2024-149BM","EPOCH":"2026-03-02T17:57:51.784128","MEAN_MOTION":15.33375582,"ECCENTRICITY":0.0005936,"INCLINATION":97.3789,"RA_OF_ASC_NODE":143.2756,"ARG_OF_PERICENTER":320.8159,"MEAN_ANOMALY":39.2653,"EPHEMERIS_TYPE":0,"CLASSIFICATION_TYPE":"U","NORAD_CAT_ID":60527,"ELEMENT_SET_NO":999,"REV_AT_EPOCH":8584,"BSTAR":0.0004813,"MEAN_MOTION_DOT":0.00015467,"MEAN_MOTION_DDOT":0},{"OBJECT_NAME":"ERNST","OBJECT_ID":"2024-149BN","EPOCH":"2026-03-02T18:37:39.751392","MEAN_MOTION":15.36102143,"ECCENTRICITY":0.0005174,"INCLINATION":97.3864,"RA_OF_ASC_NODE":144.9211,"ARG_OF_PERICENTER":326.6621,"MEAN_ANOMALY":33.4296,"EPHEMERIS_TYPE":0,"CLASSIFICATION_TYPE":"U","NORAD_CAT_ID":60528,"ELEMENT_SET_NO":999,"REV_AT_EPOCH":8592,"BSTAR":0.00050608,"MEAN_MOTION_DOT":0.00017743,"MEAN_MOTION_DDOT":0},{"OBJECT_NAME":"TORO","OBJECT_ID":"2024-149BQ","EPOCH":"2026-03-02T18:31:33.562272","MEAN_MOTION":14.95975312,"ECCENTRICITY":0.0001545,"INCLINATION":97.6876,"RA_OF_ASC_NODE":138.4266,"ARG_OF_PERICENTER":84.3163,"MEAN_ANOMALY":275.8234,"EPHEMERIS_TYPE":0,"CLASSIFICATION_TYPE":"U","NORAD_CAT_ID":60530,"ELEMENT_SET_NO":999,"REV_AT_EPOCH":8404,"BSTAR":0.00026346,"MEAN_MOTION_DOT":2.896e-5,"MEAN_MOTION_DDOT":0},{"OBJECT_NAME":"HYPSO-2","OBJECT_ID":"2024-149BR","EPOCH":"2026-03-02T18:18:25.366176","MEAN_MOTION":14.98192206,"ECCENTRICITY":0.0001695,"INCLINATION":97.6903,"RA_OF_ASC_NODE":139.5881,"ARG_OF_PERICENTER":84.5162,"MEAN_ANOMALY":275.6254,"EPHEMERIS_TYPE":0,"CLASSIFICATION_TYPE":"U","NORAD_CAT_ID":60531,"ELEMENT_SET_NO":999,"REV_AT_EPOCH":8411,"BSTAR":0.00039655,"MEAN_MOTION_DOT":4.648e-5,"MEAN_MOTION_DDOT":0}]
